{
  "norad_id": 67116,
  "name": "STARLINK-35738",
  "history": [
    {
      "epoch": "2026-05-06T13:51:18.124704Z",
      "apogee_km": 484.53670106704794,
      "perigee_km": 481.5562029754901,
      "latitude_deg": -5.19560471538011e-05,
      "longitude_deg": 129.44949675518336,
      "height_km": 482.83943530448323,
      "semi_major_axis_km": 6861.183452021269,
      "eccentricity": 0.0002172,
      "inclination_deg": 43.0024,
      "raan_deg": 201.711,
      "arg_perigee_deg": 269.4074,
      "mean_anomaly_deg": 90.6528,
      "mean_motion_rev_day": 15.27580883
    },
    {
      "epoch": "2026-05-07T11:49:29.750880Z",
      "apogee_km": 484.09036037930036,
      "perigee_km": 481.9812358611571,
      "latitude_deg": 3.6011861002163376e-05,
      "longitude_deg": 153.82697327542928,
      "height_km": 482.83155088857853,
      "semi_major_axis_km": 6861.172798120228,
      "eccentricity": 0.0001537,
      "inclination_deg": 42.9983,
      "raan_deg": 196.5391,
      "arg_perigee_deg": 268.9603,
      "mean_anomaly_deg": 91.1073,
      "mean_motion_rev_day": 15.27584441
    },
    {
      "epoch": "2026-05-08T20:46:46.250112Z",
      "apogee_km": 484.27769411925146,
      "perigee_km": 481.72397861655463,
      "latitude_deg": -2.807027785867451e-05,
      "longitude_deg": 10.399357299594145,
      "height_km": 482.8133634515352,
      "semi_major_axis_km": 6861.137836367902,
      "eccentricity": 0.0001861,
      "inclination_deg": 42.9983,
      "raan_deg": 188.7837,
      "arg_perigee_deg": 268.4,
      "mean_anomaly_deg": 91.6638,
      "mean_motion_rev_day": 15.27596117
    },
    {
      "epoch": "2026-05-09T10:54:10.831392Z",
      "apogee_km": 483.48634444757954,
      "perigee_km": 482.52578441855803,
      "latitude_deg": 1.7197816289101886e-05,
      "longitude_deg": 154.64185098243874,
      "height_km": 482.7385464537088,
      "semi_major_axis_km": 6861.1430644330685,
      "eccentricity": 7e-05,
      "inclination_deg": 43.0023,
      "raan_deg": 185.4586,
      "arg_perigee_deg": 275.24,
      "mean_anomaly_deg": 84.8372,
      "mean_motion_rev_day": 15.27594371
    },
    {
      "epoch": "2026-05-10T12:00:41.205024Z",
      "apogee_km": 484.24047609656736,
      "perigee_km": 481.8459242067147,
      "latitude_deg": -6.728016351343398e-06,
      "longitude_deg": 131.07540021622447,
      "height_km": 482.56715259622734,
      "semi_major_axis_km": 6861.180200151641,
      "eccentricity": 0.0001745,
      "inclination_deg": 42.9998,
      "raan_deg": 179.5499,
      "arg_perigee_deg": 282.1998,
      "mean_anomaly_deg": 77.8658,
      "mean_motion_rev_day": 15.27581969
    },
    {
      "epoch": "2026-05-11T19:23:49.335360Z",
      "apogee_km": 483.8237329538688,
      "perigee_km": 482.32387227241634,
      "latitude_deg": -1.1603214208144016e-05,
      "longitude_deg": 11.618557566227315,
      "height_km": 482.7213978271791,
      "semi_major_axis_km": 6861.210802613142,
      "eccentricity": 0.0001093,
      "inclination_deg": 42.9994,
      "raan_deg": 172.1659,
      "arg_perigee_deg": 279.8884,
      "mean_anomaly_deg": 80.1844,
      "mean_motion_rev_day": 15.27571749
    },
    {
      "epoch": "2026-05-12T11:05:24.036000Z",
      "apogee_km": 484.06868774251234,
      "perigee_km": 482.1434229411843,
      "latitude_deg": 1.0325299895104337e-05,
      "longitude_deg": 131.8887076905207,
      "height_km": 482.8879261428099,
      "semi_major_axis_km": 6861.243055341848,
      "eccentricity": 0.0001403,
      "inclination_deg": 43.0019,
      "raan_deg": 168.4751,
      "arg_perigee_deg": 269.7051,
      "mean_anomaly_deg": 90.364,
      "mean_motion_rev_day": 15.27560978
    },
    {
      "epoch": "2026-05-13T02:46:58.550016Z",
      "apogee_km": 484.03729038872825,
      "perigee_km": 482.1275385769013,
      "latitude_deg": -2.3274518397076657e-05,
      "longitude_deg": -107.84192153547701,
      "height_km": 482.90821860853,
      "semi_major_axis_km": 6861.2194144828145,
      "eccentricity": 0.00013917,
      "inclination_deg": 43.0003,
      "raan_deg": 164.7828,
      "arg_perigee_deg": 267.0537,
      "mean_anomaly_deg": 93.0155,
      "mean_motion_rev_day": 15.27568873
    },
    {
      "epoch": "2026-05-15T01:51:40.283712Z",
      "apogee_km": 483.85154533197783,
      "perigee_km": 482.17454303817794,
      "latitude_deg": 2.8741860005109615e-05,
      "longitude_deg": -107.02849115082014,
      "height_km": 482.6449910166623,
      "semi_major_axis_km": 6861.150044185078,
      "eccentricity": 0.00012221,
      "inclination_deg": 42.9976,
      "raan_deg": 153.7035,
      "arg_perigee_deg": 279.9122,
      "mean_anomaly_deg": 80.1592,
      "mean_motion_rev_day": 15.2759204
    },
    {
      "epoch": "2026-05-16T17:05:33.446688Z",
      "apogee_km": 483.8013698706218,
      "perigee_km": 482.1739111058978,
      "latitude_deg": 1.8372411599899633e-06,
      "longitude_deg": 13.656087797915562,
      "height_km": 482.70672529857114,
      "semi_major_axis_km": 6861.1246404882595,
      "eccentricity": 0.0001186,
      "inclination_deg": 42.997,
      "raan_deg": 144.4708,
      "arg_perigee_deg": 274.0242,
      "mean_anomaly_deg": 86.0474,
      "mean_motion_rev_day": 15.27600524
    }
  ]
}